STARLINK-1451
1 25668C 20035M   21325.18164276  .00006043  00000-0  40484-3 0  3256
2 25668  53.0525 272.3749 0001677  67.7487  24.2663 15.06398006    17
